{"type": "FeatureCollection", "features": [ {"type": "Feature", "properties": {"norad_id": 37441, "name": "FENGYUN 1C DEB", "group": "fengyun-1c-debris", "lat": -20.683483360629104, "lon": -151.17774322185963, "alt_km": 922.351098380851, "timestamp": "2025-12-26T06:43:29.800977+00:00", "meta": {"OBJECT_NAME": "FENGYUN 1C DEB", "OBJECT_ID": "1999-025EHK", "EPOCH": "2025-12-20T19:16:48.855936", "MEAN_MOTION": 13.14245477, "ECCENTRICITY": 0.05088557, "INCLINATION": 99.146, "RA_OF_ASC_NODE": 200.5877, "ARG_OF_PERICENTER": 35.6, "MEAN_ANOMALY": 327.7968, "EPHEMERIS_TYPE": 0, "CLASSIFICATION_TYPE": "U", "NORAD_CAT_ID": 37441, "ELEMENT_SET_NO": 999, "REV_AT_EPOCH": 82278, "BSTAR": 0.001561327, "MEAN_MOTION_DOT": 1.077e-05, "MEAN_MOTION_DDOT": 0}, "tle": {"line1": "1 37441U 99025EHK 25354.80334324  .00001077  00000+0  15613-2 0  9992", "line2": "2 37441  99.1460 200.5877 0508855  35.6000 327.7968 13.14245477822781"}}, "geometry": {"type": "Point", "coordinates": [-151.17774322185963, -20.683483360629104]}}, {"type": "Feature", "properties": {"norad_id": 37444, "name": "FENGYUN 1C DEB", "group": "fengyun-1c-debris", "lat": -22.28431595664392, "lon": -101.93709741236115, "alt_km": 781.331755455968, "timestamp": "2025-12-26T06:43:29.800988+00:00", "meta": {"OBJECT_NAME": "FENGYUN 1C DEB", "OBJECT_ID": "1999-025EHN", "EPOCH": "2025-12-24T12:18:50.565600", "MEAN_MOTION": 14.4810047, "ECCENTRICITY": 0.02443082, "INCLINATION": 99.0816, "RA_OF_ASC_NODE": 79.9217, "ARG_OF_PERICENTER": 313.8235, "MEAN_ANOMALY": 44.2984, "EPHEMERIS_TYPE": 0, "CLASSIFICATION_TYPE": "U", "NORAD_CAT_ID": 37444, "ELEMENT_SET_NO": 999, "REV_AT_EPOCH": 65321, "BSTAR": 0.00064075579, "MEAN_MOTION_DOT": 3.413e-05, "MEAN_MOTION_DDOT": 0}, "tle": {"line1": "1 37444U 99025EHN 25358.51308525  .00003413  00000+0  64076-3 0  9995", "line2": "2 37444  99.0816  79.9217 0244308 313.8235  44.2984 14.48100470653215"}}, "geometry": {"type": "Point", "coordinates": [-101.93709741236115, -22.28431595664392]}}, {"type": "Feature", "properties": {"norad_id": 37448, "name": "FENGYUN 1C DEB", "group": "fengyun-1c-debris", "lat": -9.281571246484734, "lon": 66.4055004373569, "alt_km": 750.2006230961433, "timestamp": "2025-12-26T06:43:29.800998+00:00", "meta": {"OBJECT_NAME": "FENGYUN 1C DEB", "OBJECT_ID": "1999-025EHS", "EPOCH": "2025-12-24T23:36:31.084704", "MEAN_MOTION": 13.87133136, "ECCENTRICITY": 0.03058489, "INCLINATION": 99.3189, "RA_OF_ASC_NODE": 63.5736, "ARG_OF_PERICENTER": 25.7906, "MEAN_ANOMALY": 335.8146, "EPHEMERIS_TYPE": 0, "CLASSIFICATION_TYPE": "U", "NORAD_CAT_ID": 37448, "ELEMENT_SET_NO": 999, "REV_AT_EPOCH": 62545, "BSTAR": 0.0013820441, "MEAN_MOTION_DOT": 2.303e-05, "MEAN_MOTION_DDOT": 0}, "tle": {"line1": "1 37448U 99025EHS 25358.98369311  .00002303  00000+0  13820-2 0  9997", "line2": "2 37448  99.3189  63.5736 0305848  25.7906 335.8146 13.87133136625452"}}, "geometry": {"type": "Point", "coordinates": [66.4055004373569, -9.281571246484734]}}, {"type": "Feature", "properties": {"norad_id": 37460, "name": "FENGYUN 1C DEB", "group": "fengyun-1c-debris", "lat": -5.608740196279817, "lon": 176.86425909434794, "alt_km": 745.564002341077, "timestamp": "2025-12-26T06:43:29.801008+00:00", "meta": {"OBJECT_NAME": "FENGYUN 1C DEB", "OBJECT_ID": "1999-025EJE", "EPOCH": "2025-12-08T10:53:05.307360", "MEAN_MOTION": 14.47840336, "ECCENTRICITY": 0.00565903, "INCLINATION": 98.3779, "RA_OF_ASC_NODE": 158.3686, "ARG_OF_PERICENTER": 303.3518, "MEAN_ANOMALY": 56.2265, "EPHEMERIS_TYPE": 0, "CLASSIFICATION_TYPE": "U", "NORAD_CAT_ID": 37460, "ELEMENT_SET_NO": 999, "REV_AT_EPOCH": 82427, "BSTAR": 0.0027403859, "MEAN_MOTION_DOT": 0.00010316, "MEAN_MOTION_DDOT": 0}, "tle": {"line1": "1 37460U 99025EJE 25342.45353365  .00010316  00000+0  27404-2 0  9994", "line2": "2 37460  98.3779 158.3686 0056590 303.3518  56.2265 14.47840336824279"}}, "geometry": {"type": "Point", "coordinates": [176.86425909434794, -5.608740196279817]}}, {"type": "Feature", "properties": {"norad_id": 37461, "name": "FENGYUN 1C DEB", "group": "fengyun-1c-debris", "lat": 34.782803290587765, "lon": 73.80358063526978, "alt_km": 1793.6472212088065, "timestamp": "2025-12-26T06:43:29.801019+00:00", "meta": {"OBJECT_NAME": "FENGYUN 1C DEB", "OBJECT_ID": "1999-025EJF", "EPOCH": "2025-11-27T22:25:56.122176", "MEAN_MOTION": 12.7907076, "ECCENTRICITY": 0.0667413, "INCLINATION": 99.8664, "RA_OF_ASC_NODE": 221.8984, "ARG_OF_PERICENTER": 359.7811, "MEAN_ANOMALY": 0.291, "EPHEMERIS_TYPE": 0, "CLASSIFICATION_TYPE": "U", "NORAD_CAT_ID": 37461, "ELEMENT_SET_NO": 999, "REV_AT_EPOCH": 51845, "BSTAR": 0.0053613, "MEAN_MOTION_DOT": 3.048e-05, "MEAN_MOTION_DDOT": 0}, "tle": {"line1": "1 37461U 99025EJF 25331.93467734  .00003048  00000+0  53613-2 0  9997", "line2": "2 37461  99.8664 221.8984 0667413 359.7811   0.2910 12.79070760518454"}}, "geometry": {"type": "Point", "coordinates": [73.80358063526978, 34.782803290587765]}}, {"type": "Feature", "properties": {"norad_id": 37464, "name": "FENGYUN 1C DEB", "group": "fengyun-1c-debris", "lat": -45.72180024521363, "lon": -58.59144749270258, "alt_km": 1320.0040412250983, "timestamp": "2025-12-26T06:43:29.801029+00:00", "meta": {"OBJECT_NAME": "FENGYUN 1C DEB", "OBJECT_ID": "1999-025EJJ", "EPOCH": "2025-12-23T13:00:39.857472", "MEAN_MOTION": 13.46973287, "ECCENTRICITY": 0.04540964, "INCLINATION": 102.7123, "RA_OF_ASC_NODE": 284.5476, "ARG_OF_PERICENTER": 93.5176, "MEAN_ANOMALY": 271.7979, "EPHEMERIS_TYPE": 0, "CLASSIFICATION_TYPE": "U", "NORAD_CAT_ID": 37464, "ELEMENT_SET_NO": 999, "REV_AT_EPOCH": 61067, "BSTAR": 0.0034710051, "MEAN_MOTION_DOT": 3.896e-05, "MEAN_MOTION_DDOT": 0}, "tle": {"line1": "1 37464U 99025EJJ 25357.54212798  .00003896  00000+0  34710-2 0  9991", "line2": "2 37464 102.7123 284.5476 0454096  93.5176 271.7979 13.46973287610679"}}, "geometry": {"type": "Point", "coordinates": [-58.59144749270258, -45.72180024521363]}}, {"type": "Feature", "properties": {"norad_id": 37470, "name": "FENGYUN 1C DEB", "group": "fengyun-1c-debris", "lat": -54.036491725254315, "lon": 157.41634550017366, "alt_km": 562.7951692443503, "timestamp": "2025-12-26T06:43:29.801039+00:00", "meta": {"OBJECT_NAME": "FENGYUN 1C DEB", "OBJECT_ID": "1999-025EJQ", "EPOCH": "2025-12-24T05:26:11.905152", "MEAN_MOTION": 15.02795725, "ECCENTRICITY": 0.00021596, "INCLINATION": 98.6697, "RA_OF_ASC_NODE": 142.9802, "ARG_OF_PERICENTER": 329.9588, "MEAN_ANOMALY": 30.151, "EPHEMERIS_TYPE": 0, "CLASSIFICATION_TYPE": "U", "NORAD_CAT_ID": 37470, "ELEMENT_SET_NO": 999, "REV_AT_EPOCH": 65634, "BSTAR": 0.0060640232, "MEAN_MOTION_DOT": 0.00081995, "MEAN_MOTION_DDOT": 0}, "tle": {"line1": "1 37470U 99025EJQ 25358.22652668  .00081995  00000+0  60640-2 0  9995", "line2": "2 37470  98.6697 142.9802 0002159 329.9588  30.1510 15.02795725656342"}}, "geometry": {"type": "Point", "coordinates": [157.41634550017366, -54.036491725254315]}}, {"type": "Feature", "properties": {"norad_id": 37474, "name": "FENGYUN 1C DEB", "group": "fengyun-1c-debris", "lat": 19.782176872426735, "lon": -156.10478442425438, "alt_km": 615.5849400318793, "timestamp": "2025-12-26T06:43:29.801049+00:00", "meta": {"OBJECT_NAME": "FENGYUN 1C DEB", "OBJECT_ID": "1999-025EJU", "EPOCH": "2025-12-24T20:27:11.751840", "MEAN_MOTION": 14.75336931, "ECCENTRICITY": 0.013197, "INCLINATION": 99.1656, "RA_OF_ASC_NODE": 205.6078, "ARG_OF_PERICENTER": 97.4054, "MEAN_ANOMALY": 264.2169, "EPHEMERIS_TYPE": 0, "CLASSIFICATION_TYPE": "U", "NORAD_CAT_ID": 37474, "ELEMENT_SET_NO": 999, "REV_AT_EPOCH": 62554, "BSTAR": 0.0012519274, "MEAN_MOTION_DOT": 9.722e-05, "MEAN_MOTION_DDOT": 0}, "tle": {"line1": "1 37474U 99025EJU 25358.85221935  .00009722  00000+0  12519-2 0  9997", "line2": "2 37474  99.1656 205.6078 0131970  97.4054 264.2169 14.75336931625545"}}, "geometry": {"type": "Point", "coordinates": [-156.10478442425438, 19.782176872426735]}}, {"type": "Feature", "properties": {"norad_id": 37477, "name": "FENGYUN 1C DEB", "group": "fengyun-1c-debris", "lat": 58.01696048502999, "lon": -9.465346071916583, "alt_km": 794.0784001847242, "timestamp": "2025-12-26T06:43:29.801060+00:00", "meta": {"OBJECT_NAME": "FENGYUN 1C DEB", "OBJECT_ID": "1999-025EJX", "EPOCH": "2025-12-16T18:06:36.022176", "MEAN_MOTION": 14.19731482, "ECCENTRICITY": 0.00371355, "INCLINATION": 98.6057, "RA_OF_ASC_NODE": 355.3103, "ARG_OF_PERICENTER": 94.8392, "MEAN_ANOMALY": 265.7026, "EPHEMERIS_TYPE": 0, "CLASSIFICATION_TYPE": "U", "NORAD_CAT_ID": 37477, "ELEMENT_SET_NO": 999, "REV_AT_EPOCH": 81971, "BSTAR": 0.00055952668, "MEAN_MOTION_DOT": 1.15e-05, "MEAN_MOTION_DDOT": 0}, "tle": {"line1": "1 37477U 99025EJX 25350.75458359  .00001150  00000+0  55953-3 0  9990", "line2": "2 37477  98.6057 355.3103 0037135  94.8392 265.7026 14.19731482819713"}}, "geometry": {"type": "Point", "coordinates": [-9.465346071916583, 58.01696048502999]}}, {"type": "Feature", "properties": {"norad_id": 37478, "name": "FENGYUN 1C DEB", "group": "fengyun-1c-debris", "lat": -68.93727115548205, "lon": 135.12275652522035, "alt_km": 915.4567099929554, "timestamp": "2025-12-26T06:43:29.801070+00:00", "meta": {"OBJECT_NAME": "FENGYUN 1C DEB", "OBJECT_ID": "1999-025EJY", "EPOCH": "2025-12-23T05:31:28.594848", "MEAN_MOTION": 13.03020761, "ECCENTRICITY": 0.05479168, "INCLINATION": 99.6522, "RA_OF_ASC_NODE": 338.6097, "ARG_OF_PERICENTER": 295.1195, "MEAN_ANOMALY": 59.4029, "EPHEMERIS_TYPE": 0, "CLASSIFICATION_TYPE": "U", "NORAD_CAT_ID": 37478, "ELEMENT_SET_NO": 999, "REV_AT_EPOCH": 56698, "BSTAR": 0.0032489988, "MEAN_MOTION_DOT": 2.046e-05, "MEAN_MOTION_DDOT": 0}, "tle": {"line1": "1 37478U 99025EJY 25357.23019207  .00002046  00000+0  32490-2 0  9991", "line2": "2 37478  99.6522 338.6097 0547916 295.1195  59.4029 13.03020761566980"}}, "geometry": {"type": "Point", "coordinates": [135.12275652522035, -68.93727115548205]}}]}